start=new Date('2022-01-05T00:00:00.000Z').valueOf();
sats=[{"TLE_LINE2":"2 48020  53.0552 271.7812 0001748  58.2044 301.9115 15.06392094 45656","MEAN_ANOMALY":"301.9115","CENTER_NAME":"EARTH","SEMIMAJOR_AXIS":"6925.373","RCS_SIZE":"LARGE","PERIOD":"95.593","RA_OF_ASC_NODE":"271.7812","PERIAPSIS":"546.027","ARG_OF_PERICENTER":"58.2044","REV_AT_EPOCH":"4565","OBJECT_TYPE":"PAYLOAD","REF_FRAME":"TEME","MEAN_MOTION_DDOT":"0.0000000000000","SITE":"AFETR","ELEMENT_SET_NO":"999","APOAPSIS":"548.448","MEAN_MOTION_DOT":"0.00000276","NORAD_CAT_ID":"48020","EPHEMERIS_TYPE":"0","GP_ID":"193214824","MEAN_MOTION":"15.06392094","CLASSIFICATION_TYPE":"U","FILE":"3264067","EPOCH":"2022-01-04T20:54:54.631296","OBJECT_ID":"2021-024AV","TIME_SYSTEM":"UTC","MEAN_ELEMENT_THEORY":"SGP4","TLE_LINE1":"1 48020U 21024AV  22004.87146564  .00000276  00000-0  37471-4 0  9993","BSTAR":"0.00003747100000","ECCENTRICITY":"0.00017480","OBJECT_NAME":"STARLINK-2294","INCLINATION":"53.0552","LAUNCH_DATE":"2021-03-24","COUNTRY_CODE":"US","DECAY_DATE":null},{"EPOCH":"2022-01-04T22:07:15.438144","OBJECT_ID":"2021-024AW","TIME_SYSTEM":"UTC","NORAD_CAT_ID":"48021","EPHEMERIS_TYPE":"0","GP_ID":"193215576","MEAN_MOTION":"15.06395901","CLASSIFICATION_TYPE":"U","FILE":"3264067","ECCENTRICITY":"0.00021260","INCLINATION":"53.0568","OBJECT_NAME":"STARLINK-2301","LAUNCH_DATE":"2021-03-24","COUNTRY_CODE":"US","DECAY_DATE":null,"MEAN_ELEMENT_THEORY":"SGP4","TLE_LINE1":"1 48021U 21024AW  22004.92170646  .00000430  00000-0  47755-4 0  9996","BSTAR":"0.00004775500000","RCS_SIZE":"LARGE","RA_OF_ASC_NODE":"276.5643","PERIOD":"95.592","PERIAPSIS":"545.754","ARG_OF_PERICENTER":"54.7427","REV_AT_EPOCH":"4560","TLE_LINE2":"2 48021  53.0568 276.5643 0002126  54.7427 305.3761 15.06395901 45606","MEAN_ANOMALY":"305.3761","CENTER_NAME":"EARTH","SEMIMAJOR_AXIS":"6925.361","SITE":"AFETR","ELEMENT_SET_NO":"999","APOAPSIS":"548.698","MEAN_MOTION_DOT":"0.00000430","OBJECT_TYPE":"PAYLOAD","REF_FRAME":"TEME","MEAN_MOTION_DDOT":"0.0000000000000"},{"TLE_LINE1":"1 48022U 21024AX  22004.39182742  .00002756  00000-0  20383-3 0  9998","MEAN_ELEMENT_THEORY":"SGP4","BSTAR":"0.00020383000000","OBJECT_NAME":"STARLINK-2298","INCLINATION":"53.0550","ECCENTRICITY":"0.00018900","DECAY_DATE":null,"COUNTRY_CODE":"US","LAUNCH_DATE":"2021-03-24","MEAN_MOTION":"15.06407519","GP_ID":"193180222","CLASSIFICATION_TYPE":"U","NORAD_CAT_ID":"48022","EPHEMERIS_TYPE":"0","FILE":"3263295","OBJECT_ID":"2021-024AX","EPOCH":"2022-01-04T09:24:13.889088","TIME_SYSTEM":"UTC","OBJECT_TYPE":"PAYLOAD","REF_FRAME":"TEME","MEAN_MOTION_DDOT":"0.0000000000000","SITE":"AFETR","APOAPSIS":"548.499","MEAN_MOTION_DOT":"0.00002756","ELEMENT_SET_NO":"999","TLE_LINE2":"2 48022  53.0550 338.9505 0001890  56.0711 304.0457 15.06407519 44736","MEAN_ANOMALY":"304.0457","SEMIMAJOR_AXIS":"6925.326","CENTER_NAME":"EARTH","RCS_SIZE":"LARGE","PERIOD":"95.592","RA_OF_ASC_NODE":"338.9505","ARG_OF_PERICENTER":"56.0711","REV_AT_EPOCH":"4473","PERIAPSIS":"545.882"},{"EPHEMERIS_TYPE":"0","NORAD_CAT_ID":"48023","MEAN_MOTION":"15.06401168","GP_ID":"193180972","CLASSIFICATION_TYPE":"U","FILE":"3263295","TIME_SYSTEM":"UTC","EPOCH":"2022-01-04T09:46:49.769472","OBJECT_ID":"2021-024AY","MEAN_ELEMENT_THEORY":"SGP4","TLE_LINE1":"1 48023U 21024AY  22004.40752048  .00000830  00000-0  74605-4 0  9991","BSTAR":"0.00007460500000","ECCENTRICITY":"0.00017960","OBJECT_NAME":"STARLINK-2292","INCLINATION":"53.0556","COUNTRY_CODE":"US","LAUNCH_DATE":"2021-03-24","DECAY_DATE":null,"MEAN_ANOMALY":"301.2765","TLE_LINE2":"2 48023  53.0556 338.8692 0001796  58.8400 301.2765 15.06401168 44734","CENTER_NAME":"EARTH","SEMIMAJOR_AXIS":"6925.345","PERIOD":"95.592","RA_OF_ASC_NODE":"338.8692","RCS_SIZE":"LARGE","PERIAPSIS":"545.966","REV_AT_EPOCH":"4473","ARG_OF_PERICENTER":"58.8400","OBJECT_TYPE":"PAYLOAD","MEAN_MOTION_DDOT":"0.0000000000000","REF_FRAME":"TEME","SITE":"AFETR","ELEMENT_SET_NO":"999","MEAN_MOTION_DOT":"0.00000830","APOAPSIS":"548.454"},{"OBJECT_TYPE":"PAYLOAD","REF_FRAME":"TEME","MEAN_MOTION_DDOT":"0.0000111460000","SITE":"AFETR","ELEMENT_SET_NO":"999","APOAPSIS":"301.168","MEAN_MOTION_DOT":"0.00012277","TLE_LINE2":"2 48024  53.0366 215.4509 0002469 169.2640 190.8439 15.90987824 46443","MEAN_ANOMALY":"190.8439","CENTER_NAME":"EARTH","SEMIMAJOR_AXIS":"6677.654","RCS_SIZE":"LARGE","PERIOD":"90.510","RA_OF_ASC_NODE":"215.4509","PERIAPSIS":"297.871","ARG_OF_PERICENTER":"169.2640","REV_AT_EPOCH":"4644","MEAN_ELEMENT_THEORY":"SGP4","TLE_LINE1":"1 48024U 21024AZ  22004.85835237  .00012277  11146-4  48847-4 0  9997","BSTAR":"0.00004884700000","ECCENTRICITY":"0.00024690","OBJECT_NAME":"STARLINK-2302","INCLINATION":"53.0366","LAUNCH_DATE":"2021-03-24","COUNTRY_CODE":"US","DECAY_DATE":null,"NORAD_CAT_ID":"48024","EPHEMERIS_TYPE":"0","GP_ID":"193215324","MEAN_MOTION":"15.90987824","CLASSIFICATION_TYPE":"U","FILE":"3264067","EPOCH":"2022-01-04T20:36:01.644768","OBJECT_ID":"2021-024AZ","TIME_SYSTEM":"UTC"},{"TIME_SYSTEM":"UTC","EPOCH":"2022-01-04T22:20:53.009376","OBJECT_ID":"2021-024BA","FILE":"3264067","GP_ID":"193216076","CLASSIFICATION_TYPE":"U","MEAN_MOTION":"15.99990489","NORAD_CAT_ID":"48025","EPHEMERIS_TYPE":"0","DECAY_DATE":null,"COUNTRY_CODE":"US","LAUNCH_DATE":"2021-03-24","INCLINATION":"53.0331","OBJECT_NAME":"STARLINK-2318","ECCENTRICITY":"0.00054550","BSTAR":"0.00257500000000","TLE_LINE1":"1 48025U 21024BA  22004.93116909  .01333804  96278-3  25750-2 0  9992","MEAN_ELEMENT_THEORY":"SGP4","REV_AT_EPOCH":"4596","ARG_OF_PERICENTER":"226.3033","PERIAPSIS":"270.818","RA_OF_ASC_NODE":"215.9338","PERIOD":"90.001","RCS_SIZE":"LARGE","SEMIMAJOR_AXIS":"6652.582","CENTER_NAME":"EARTH","MEAN_ANOMALY":"133.7487","TLE_LINE2":"2 48025  53.0331 215.9338 0005455 226.3033 133.7487 15.99990489 45965","MEAN_MOTION_DOT":"0.01333804","APOAPSIS":"278.076","ELEMENT_SET_NO":"999","SITE":"AFETR","MEAN_MOTION_DDOT":"0.0009627800000","REF_FRAME":"TEME","OBJECT_TYPE":"PAYLOAD"},{"TLE_LINE1":"1 48026U 21024BB  22004.25409281 -.00000065  00000-0  14553-4 0  9992","MEAN_ELEMENT_THEORY":"SGP4","BSTAR":"0.00001455300000","INCLINATION":"53.0475","OBJECT_NAME":"STARLINK-2278","ECCENTRICITY":"0.00018090","DECAY_DATE":null,"LAUNCH_DATE":"2021-03-24","COUNTRY_CODE":"US","CLASSIFICATION_TYPE":"U","GP_ID":"193180722","MEAN_MOTION":"15.06392724","NORAD_CAT_ID":"48026","EPHEMERIS_TYPE":"0","FILE":"3263295","OBJECT_ID":"2021-024BB","EPOCH":"2022-01-04T06:05:53.618784","TIME_SYSTEM":"UTC","OBJECT_TYPE":"PAYLOAD","REF_FRAME":"TEME","MEAN_MOTION_DDOT":"0.0000000000000","SITE":"AFETR","APOAPSIS":"548.489","MEAN_MOTION_DOT":"-0.00000065","ELEMENT_SET_NO":"999","TLE_LINE2":"2 48026  53.0475 344.5937 0001809  85.7327 274.3869 15.06392724 44580","MEAN_ANOMALY":"274.3869","SEMIMAJOR_AXIS":"6925.371","CENTER_NAME":"EARTH","RCS_SIZE":"LARGE","PERIOD":"95.593","RA_OF_ASC_NODE":"344.5937","ARG_OF_PERICENTER":"85.7327","REV_AT_EPOCH":"4458","PERIAPSIS":"545.983"},{"DECAY_DATE":null,"COUNTRY_CODE":"US","LAUNCH_DATE":"2021-03-24","INCLINATION":"53.0557","OBJECT_NAME":"STARLINK-2300","ECCENTRICITY":"0.00020850","BSTAR":"0.00008033000000","TLE_LINE1":"1 48027U 21024BC  22004.81112635  .00000915  00000-0  80330-4 0  9998","MEAN_ELEMENT_THEORY":"SGP4","TIME_SYSTEM":"UTC","EPOCH":"2022-01-04T19:28:01.316640","OBJECT_ID":"2021-024BC","FILE":"3264067","GP_ID":"193214575","MEAN_MOTION":"15.06406725","CLASSIFICATION_TYPE":"U","NORAD_CAT_ID":"48027","EPHEMERIS_TYPE":"0","MEAN_MOTION_DOT":"0.00000915","APOAPSIS":"548.637","ELEMENT_SET_NO":"999","SITE":"AFETR","MEAN_MOTION_DDOT":"0.0000000000000","REF_FRAME":"TEME","OBJECT_TYPE":"PAYLOAD","REV_AT_EPOCH":"4501","ARG_OF_PERICENTER":"64.9124","PERIAPSIS":"545.749","RA_OF_ASC_NODE":"317.0646","PERIOD":"95.592","RCS_SIZE":"LARGE","SEMIMAJOR_AXIS":"6925.328","CENTER_NAME":"EARTH","MEAN_ANOMALY":"295.2081","TLE_LINE2":"2 48027  53.0557 317.0646 0002085  64.9124 295.2081 15.06406725 45019"},{"OBJECT_ID":"2021-024BD","EPOCH":"2022-01-04T21:21:26.412192","TIME_SYSTEM":"UTC","NORAD_CAT_ID":"48028","EPHEMERIS_TYPE":"0","GP_ID":"193214825","MEAN_MOTION":"15.06398138","CLASSIFICATION_TYPE":"U","FILE":"3264067","ECCENTRICITY":"0.00015500","OBJECT_NAME":"STARLINK-2264","INCLINATION":"53.0567","COUNTRY_CODE":"US","LAUNCH_DATE":"2021-03-24","DECAY_DATE":null,"MEAN_ELEMENT_THEORY":"SGP4","TLE_LINE1":"1 48028U 21024BD  22004.88988903 -.00000174  00000-0  72225-5 0  9998","BSTAR":"0.00000722250000","RCS_SIZE":"LARGE","RA_OF_ASC_NODE":"271.7087","PERIOD":"95.592","PERIAPSIS":"546.146","ARG_OF_PERICENTER":"61.4254","REV_AT_EPOCH":"4571","TLE_LINE2":"2 48028  53.0567 271.7087 0001550  61.4254 298.6891 15.06398138 45719","MEAN_ANOMALY":"298.6891","CENTER_NAME":"EARTH","SEMIMAJOR_AXIS":"6925.354","SITE":"AFETR","ELEMENT_SET_NO":"999","APOAPSIS":"548.293","MEAN_MOTION_DOT":"-0.00000174","OBJECT_TYPE":"PAYLOAD","REF_FRAME":"TEME","MEAN_MOTION_DDOT":"0.0000000000000"},{"BSTAR":"0.00006276700000","TLE_LINE1":"1 48029U 21024BE  22004.84983382  .00000653  00000-0  62767-4 0  9991","MEAN_ELEMENT_THEORY":"SGP4","DECAY_DATE":null,"COUNTRY_CODE":"US","LAUNCH_DATE":"2021-03-24","OBJECT_NAME":"STARLINK-2299","INCLINATION":"53.0554","ECCENTRICITY":"0.00016760","FILE":"3264067","MEAN_MOTION":"15.06393054","GP_ID":"193215577","CLASSIFICATION_TYPE":"U","NORAD_CAT_ID":"48029","EPHEMERIS_TYPE":"0","TIME_SYSTEM":"UTC","EPOCH":"2022-01-04T20:23:45.642048","OBJECT_ID":"2021-024BE","MEAN_MOTION_DDOT":"0.0000000000000","REF_FRAME":"TEME","OBJECT_TYPE":"PAYLOAD","MEAN_MOTION_DOT":"0.00000653","APOAPSIS":"548.396","ELEMENT_SET_NO":"999","SITE":"AFETR","SEMIMAJOR_AXIS":"6925.370","CENTER_NAME":"EARTH","MEAN_ANOMALY":"294.3128","TLE_LINE2":"2 48029  53.0554 336.9044 0001676  65.8036 294.3128 15.06393054 44805","REV_AT_EPOCH":"4480","ARG_OF_PERICENTER":"65.8036","PERIAPSIS":"546.074","PERIOD":"95.593","RA_OF_ASC_NODE":"336.9044","RCS_SIZE":"LARGE"}];
